COMMENT,ORIGINATOR,NORAD_CAT_ID,OBJECT_NAME,OBJECT_TYPE,CLASSIFICATION_TYPE,INTLDES,EPOCH,EPOCH_MICROSECONDS,MEAN_MOTION,ECCENTRICITY,INCLINATION,RA_OF_ASC_NODE,ARG_OF_PERICENTER,MEAN_ANOMALY,EPHEMERIS_TYPE,ELEMENT_SET_NO,REV_AT_EPOCH,BSTAR,MEAN_MOTION_DOT,MEAN_MOTION_DDOT,FILE,TLE_LINE0,TLE_LINE1,TLE_LINE2,OBJECT_ID,OBJECT_NUMBER,SEMIMAJOR_AXIS,PERIOD,APOGEE,PERIGEE,DECAYED,date
GENERATED VIA SPACETRACK.ORG API,18 SPCS,48899,SPACEBEE-110,PAYLOAD,U,21059W,2023/1/1 8:17,418176,15.21166552,0.0009187,97.5775,136.3592,129.4536,230.7514,0,999,8397,0.00083346,0.00018552,0,3728759,0 SPACEBEE-110,1 48899U 21059W   23001.34531734  .00018552  00000-0  83346-3 0  9999,2 48899  97.5775 136.3592 0009187 129.4536 230.7514 15.21166552 83977,2021-059W,48899,6880.458,94.664,508.644,496.002,0,2023/1/1
GENERATED VIA SPACETRACK.ORG API,18 SPCS,48899,SPACEBEE-110,PAYLOAD,U,21059W,2023/1/1 19:20,572576,15.21181728,0.0009176,97.5775,136.8227,128.0734,232.133,0,999,8404,0.00079984,0.00017807,0,3728952,0 SPACEBEE-110,1 48899U 21059W   23001.80578209  .00017807  00000-0  79984-3 0  9993,2 48899  97.5775 136.8227 0009176 128.0734 232.1330 15.21181728 84043,2021-059W,48899,6880.412,94.663,508.59,495.963,0,2023/1/2
GENERATED VIA SPACETRACK.ORG API,18 SPCS,48899,SPACEBEE-110,PAYLOAD,U,21059W,2023/1/1 20:55,2592,15.21183058,0.0009191,97.5775,136.8889,127.8669,232.3399,0,999,8405,0.00076779,0.0001709,0,3729066,0 SPACEBEE-110,1 48899U 21059W   23001.87156253  .00017090  00000-0  76779-3 0  9994,2 48899  97.5775 136.8889 0009191 127.8669 232.3399 15.21183058 84054,2021-059W,48899,6880.408,94.663,508.597,495.949,0,2023/1/3
GENERATED VIA SPACETRACK.ORG API,18 SPCS,48899,SPACEBEE-110,PAYLOAD,U,21059W,2023/1/2 14:16,972448,15.21207621,0.0009185,97.5775,137.617,125.5698,234.6394,0,999,8416,0.00073445,0.00016355,0,3729583,0 SPACEBEE-110,1 48899U 21059W   23002.59513857  .00016355  00000-0  73445-3 0  9991,2 48899  97.5775 137.6170 0009185 125.5698 234.6394 15.21207621 84161,2021-059W,48899,6880.334,94.662,508.518,495.879,0,2023/1/4
GENERATED VIA SPACETRACK.ORG API,18 SPCS,48899,SPACEBEE-110,PAYLOAD,U,21059W,2023/1/3 7:38,953024,15.2123476,0.0009212,97.5777,138.3452,123.1944,237.0176,0,999,8427,0.00080622,0.00017978,0,3730926,0 SPACEBEE-110,1 48899U 21059W   23003.31870316  .00017978  00000-0  80622-3 0  9995,2 48899  97.5777 138.3452 0009212 123.1944 237.0176 15.21234760 84274,2021-059W,48899,6880.252,94.66,508.455,495.779,0,2023/1/5
GENERATED VIA SPACETRACK.ORG API,18 SPCS,48899,SPACEBEE-110,PAYLOAD,U,21059W,2023/1/4 8:54,465760,15.21273545,0.0009222,97.5781,139.4047,119.5086,240.707,0,999,8443,0.00089628,0.00020023,0,3731773,0 SPACEBEE-110,1 48899U 21059W   23004.37113965  .00020023  00000-0  89628-3 0  9992,2 48899  97.5781 139.4047 0009222 119.5086 240.7070 15.21273545 84434,2021-059W,48899,6880.135,94.658,508.345,495.655,0,2023/1/6
GENERATED VIA SPACETRACK.ORG API,18 SPCS,48899,SPACEBEE-110,PAYLOAD,U,21059W,2023/1/4 8:54,465760,15.21273545,0.0009222,97.5781,139.4047,119.5086,240.707,0,999,8443,0.00089628,0.00020023,0,3731823,0 SPACEBEE-110,1 48899U 21059W   23004.37113965  .00020023  00000-0  89628-3 0  9992,2 48899  97.5781 139.4047 0009222 119.5086 240.7070 15.21273545 84434,2021-059W,48899,6880.135,94.658,508.345,495.655,0,2023/1/7
GENERATED VIA SPACETRACK.ORG API,18 SPCS,48899,SPACEBEE-110,PAYLOAD,U,21059W,2023/1/5 8:35,373792,15.21313177,0.0009276,97.5783,140.3979,116.321,243.8979,0,999,8458,0.00081162,0.00018141,0,3732939,0 SPACEBEE-110,1 48899U 21059W   23005.35777053  .00018141  00000-0  81162-3 0  9998,2 48899  97.5783 140.3979 0009276 116.3210 243.8979 15.21313177 84588,2021-059W,48899,6880.016,94.655,508.263,495.499,0,2023/1/8
GENERATED VIA SPACETRACK.ORG API,18 SPCS,48899,SPACEBEE-110,PAYLOAD,U,21059W,2023/1/6 8:15,762400,15.21361778,0.0009256,97.5785,141.3912,113.0907,247.1305,0,999,8473,0.00097698,0.00021894,0,3733524,0 SPACEBEE-110,1 48899U 21059W   23006.34437225  .00021894  00000-0  97698-3 0  9992,2 48899  97.5785 141.3912 0009256 113.0907 247.1305 15.21361778 84730,2021-059W,48899,6879.869,94.652,508.102,495.366,0,2023/1/9
GENERATED VIA SPACETRACK.ORG API,18 SPCS,48899,SPACEBEE-110,PAYLOAD,U,21059W,2023/1/6 14:34,658048,15.21370352,0.0009222,97.5785,141.6561,112.3437,247.8777,0,999,8477,0.00081798,0.00018315,0,3734255,0 SPACEBEE-110,1 48899U 21059W   23006.60746132  .00018315  00000-0  81798-3 0  9999,2 48899  97.5785 141.6561 0009222 112.3437 247.8777 15.21370352 84778,2021-059W,48899,6879.843,94.652,508.053,495.364,0,2023/1/10
GENERATED VIA SPACETRACK.ORG API,18 SPCS,48899,SPACEBEE-110,PAYLOAD,U,21059W,2023/1/7 3:12,987968,15.21393208,0.0009209,97.5786,142.186,110.3672,249.8554,0,999,8485,0.00091143,0.00020435,0,3735161,0 SPACEBEE-110,1 48899U 21059W   23007.13363412  .00020435  00000-0  91143-3 0  9995,2 48899  97.5786 142.1860 0009209 110.3672 249.8554 15.21393208 84850,2021-059W,48899,6879.774,94.65,507.975,495.304,0,2023/1/11
GENERATED VIA SPACETRACK.ORG API,18 SPCS,48899,SPACEBEE-110,PAYLOAD,U,21059W,2023/1/7 18:59,710336,15.21422614,0.0009198,97.5788,142.8479,108.4306,251.793,0,999,8495,0.00098391,0.00022089,0,3735398,0 SPACEBEE-110,1 48899U 21059W   23007.79133924  .00022089  00000-0  98391-3 0  9999,2 48899  97.5788 142.8479 0009198 108.4306 251.7930 15.21422614 84959,2021-059W,48899,6879.686,94.648,507.879,495.223,0,2023/1/12
GENERATED VIA SPACETRACK.ORG API,18 SPCS,48899,SPACEBEE-110,PAYLOAD,U,21059W,2023/1/7 18:59,710336,15.21422614,0.0009198,97.5788,142.8479,108.4306,251.793,0,999,8495,0.00098391,0.00022089,0,3735488,0 SPACEBEE-110,1 48899U 21059W   23007.79133924  .00022089  00000-0  98391-3 0  9999,2 48899  97.5788 142.8479 0009198 108.4306 251.7930 15.21422614 84959,2021-059W,48899,6879.686,94.648,507.879,495.223,0,2023/1/13
GENERATED VIA SPACETRACK.ORG API,18 SPCS,48899,SPACEBEE-110,PAYLOAD,U,21059W,2023/1/8 7:37,519616,15.21443534,0.0009208,97.5789,143.3777,106.5249,253.6999,0,999,8503,0.00090397,0.00020296,0,3736235,0 SPACEBEE-110,1 48899U 21059W   23008.31749444  .00020296  00000-0  90397-3 0  9994,2 48899  97.5789 143.3777 0009208 106.5249 253.6999 15.21443534 85034,2021-059W,48899,6879.623,94.647,507.822,495.153,0,2023/1/14
GENERATED VIA SPACETRACK.ORG API,18 SPCS,48899,SPACEBEE-110,PAYLOAD,U,21059W,2023/1/8 15:30,559136,15.21458159,0.0009242,97.5789,143.7084,105.5998,254.6258,0,999,8508,0.00093019,0.00020898,0,3736460,0 SPACEBEE-110,1 48899U 21059W   23008.64633749  .00020898  00000-0  93019-3 0  9992,2 48899  97.5789 143.7084 0009242 105.5998 254.6258 15.21458159 85080,2021-059W,48899,6879.579,94.646,507.802,495.085,0,2023/1/15
GENERATED VIA SPACETRACK.ORG API,18 SPCS,48899,SPACEBEE-110,PAYLOAD,U,21059W,2023/1/9 7:17,824288,15.21488057,0.0009311,97.5791,144.3708,103.1008,257.1267,0,999,8518,0.00095136,0.00021396,0,3736888,0 SPACEBEE-110,1 48899U 21059W   23009.30401417  .00021396  00000-0  95136-3 0  9997,2 48899  97.5791 144.3708 0009311 103.1008 257.1267 15.21488057 85185,2021-059W,48899,6879.488,94.644,507.759,494.948,0,2023/1/16
GENERATED VIA SPACETRACK.ORG API,18 SPCS,48899,SPACEBEE-110,PAYLOAD,U,21059W,2023/1/9 7:17,824288,15.21488057,0.0009311,97.5791,144.3708,103.1008,257.1267,0,999,8518,0.00095136,0.00021396,0,3737263,0 SPACEBEE-110,1 48899U 21059W   23009.30401417  .00021396  00000-0  95136-3 0  9997,2 48899  97.5791 144.3708 0009311 103.1008 257.1267 15.21488057 85185,2021-059W,48899,6879.488,94.644,507.759,494.948,0,2023/1/17
GENERATED VIA SPACETRACK.ORG API,18 SPCS,48899,SPACEBEE-110,PAYLOAD,U,21059W,2023/1/9 15:11,68064,15.21500607,0.0009318,97.5791,144.7016,102.2311,257.9969,0,999,8523,0.0008812,0.00019816,0,3737712,0 SPACEBEE-110,1 48899U 21059W   23009.63284801  .00019816  00000-0  88120-3 0  9998,2 48899  97.5791 144.7016 0009318 102.2311 257.9969 15.21500607 85234,2021-059W,48899,6879.451,94.643,507.726,494.905,0,2023/1/18
GENERATED VIA SPACETRACK.ORG API,18 SPCS,48899,SPACEBEE-110,PAYLOAD,U,21059W,2023/1/10 8:33,897344,15.21531856,0.0009302,97.5791,145.4302,99.6716,260.557,0,999,8534,0.00093848,0.00021131,0,3738457,0 SPACEBEE-110,1 48899U 21059W   23010.35627196  .00021131  00000-0  93848-3 0  9993,2 48899  97.5791 145.4302 0009302  99.6716 260.5570 15.21531856 85341,2021-059W,48899,6879.356,94.641,507.621,494.822,0,2023/1/19
GENERATED VIA SPACETRACK.ORG API,18 SPCS,48899,SPACEBEE-110,PAYLOAD,U,21059W,2023/1/10 14:51,199264,15.21543479,0.0009274,97.579,145.6949,99.0733,261.1552,0,999,8538,0.00090679,0.0002042,0,3739038,0 SPACEBEE-110,1 48899U 21059W   23010.61933101  .00020420  00000-0  90679-3 0  9997,2 48899  97.5790 145.6949 0009274  99.0733 261.1552 15.21543479 85385,2021-059W,48899,6879.321,94.641,507.566,494.806,0,2023/1/20
GENERATED VIA SPACETRACK.ORG API,18 SPCS,48899,SPACEBEE-110,PAYLOAD,U,21059W,2023/1/11 14:32,746240,15.21593989,0.0009225,97.5788,146.6882,95.8348,264.394,0,999,8553,0.0011271,0.00025454,0,3739996,0 SPACEBEE-110,1 48899U 21059W   23011.60578410  .00025454  00000-0  11271-2 0  9997,2 48899  97.5788 146.6882 0009225  95.8348 264.3940 15.21593989 85535,2021-059W,48899,6879.169,94.638,507.38,494.688,0,2023/1/21
GENERATED VIA SPACETRACK.ORG API,18 SPCS,48899,SPACEBEE-110,PAYLOAD,U,21059W,2023/1/11 14:32,746240,15.21593989,0.0009225,97.5788,146.6882,95.8348,264.394,0,999,8553,0.0011271,0.00025454,0,3740054,0 SPACEBEE-110,1 48899U 21059W   23011.60578410  .00025454  00000-0  11271-2 0  9997,2 48899  97.5788 146.6882 0009225  95.8348 264.3940 15.21593989 85535,2021-059W,48899,6879.169,94.638,507.38,494.688,0,2023/1/22
GENERATED VIA SPACETRACK.ORG API,18 SPCS,48899,SPACEBEE-110,PAYLOAD,U,21059W,2023/1/11 19:16,327488,15.21603979,0.0009215,97.5788,146.8868,95.2665,264.9623,0,999,8556,0.0010909,0.00024638,0,3740419,0 SPACEBEE-110,1 48899U 21059W   23011.80307092  .00024638  00000-0  10909-2 0  9995,2 48899  97.5788 146.8868 0009215  95.2665 264.9623 15.21603979 85564,2021-059W,48899,6879.139,94.637,507.343,494.665,0,2023/1/23
